ONEWEB-0424             
1 50497U 21132AE  23306.86730398 -.00000019  00000+0 -81392-4 0  9990
2 50497  87.9246 165.8814 0001183  93.9395 266.1873 13.18685915 95472
ONEWEB-0426             
1 50498U 21132AF  23306.90523005 -.00004446  00000+0 -11312-1 0  9991
2 50498  87.9243 165.9002 0003287  93.8186 266.3322 13.18708398 95421
ONEWEB-0427             
1 50499U 21132AG  23306.86519536  .00000015  00000+0  45632-5 0  9993
2 50499  87.9246 165.8824 0001713  88.9541 271.1787 13.18686334 95444
ONEWEB-0429             
1 50500U 21132AH  23306.85255051 -.00000541  00000+0 -14058-2 0  9995
2 50500  87.9235 165.8876 0001744  79.3180 280.8149 13.18692649 95411
ONEWEB-0430             
1 50501U 21132AJ  23306.69027519  .00002165  00000+0  54588-2 0  9998
2 50501  87.9246 165.9216 0001450  70.2619 289.8669 13.18680965 95430
ONEWEB-0432             
1 50502U 21132AK  23306.87361668 -.00005724  00000+0 -14556-1 0  9991
2 50502  87.9245 165.8807 0002179  72.6693 287.4677 13.18713016 95417
ONEWEB-0440             
1 50503U 21132AL  23306.86098306  .00000062  00000+0  12435-3 0  9991
2 50503  87.9173 165.8907 0002142  66.1534 293.9822 13.18686445 95409
ONEWEB-0450             
1 50504U 21132AM  23306.85464680  .00000105  00000+0  23350-3 0  9999
2 50504  87.9219 165.9122 0001385  64.9892 295.1384 13.18684965 95437
